{
  "norad_id": 68131,
  "name": "GUOWANG GROUP 20 OBJECT C",
  "history": [
    {
      "epoch": "2026-03-26T19:49:39.748800",
      "apogee_km": 904.7143815176432,
      "perigee_km": 904.6444664799728,
      "latitude_deg": 49.358893030041116,
      "longitude_deg": 160.41083200019784,
      "semi_major_axis_km": 7282.816423998808,
      "eccentricity": 4.8e-06,
      "inclination_deg": 49.9996,
      "raan_deg": 0.7054,
      "arg_perigee_deg": 49.5998,
      "mean_anomaly_deg": 310.4907,
      "mean_motion_rev_day": 13.9686269
    }
  ]
}